[{"OBJECT_NAME":"ONEWEB-0210","OBJECT_ID":"2021-045W","EPOCH":"2026-03-15T07:08:08.956896","MEAN_MOTION":13.15548353,"ECCENTRICITY":0.00018086,"INCLINATION":87.8942,"RA_OF_ASC_NODE":277.9232,"ARG_OF_PERICENTER":121.6823,"MEAN_ANOMALY":238.4484,"EPHEMERIS_TYPE":0,"CLASSIFICATION_TYPE":"U","NORAD_CAT_ID":48787,"ELEMENT_SET_NO":999,"REV_AT_EPOCH":23197,"BSTAR":0.00017181051,"MEAN_MOTION_DOT":7.8e-7,"MEAN_MOTION_DDOT":0},{"OBJECT_NAME":"ONEWEB-0214","OBJECT_ID":"2021-045X","EPOCH":"2026-03-14T22:13:05.735712","MEAN_MOTION":13.15548272,"ECCENTRICITY":0.0001494,"INCLINATION":87.8943,"RA_OF_ASC_NODE":277.9936,"ARG_OF_PERICENTER":104.8728,"MEAN_ANOMALY":255.2568,"EPHEMERIS_TYPE":0,"CLASSIFICATION_TYPE":"U","NORAD_CAT_ID":48788,"ELEMENT_SET_NO":999,"REV_AT_EPOCH":23189,"BSTAR":0.00046618852,"MEAN_MOTION_DOT":1.88e-6,"MEAN_MOTION_DDOT":0},{"OBJECT_NAME":"ONEWEB-0221","OBJECT_ID":"2021-045Y","EPOCH":"2026-03-15T02:02:24.157248","MEAN_MOTION":13.15547912,"ECCENTRICITY":0.00018623,"INCLINATION":87.8941,"RA_OF_ASC_NODE":277.9717,"ARG_OF_PERICENTER":95.2513,"MEAN_ANOMALY":264.883,"EPHEMERIS_TYPE":0,"CLASSIFICATION_TYPE":"U","NORAD_CAT_ID":48789,"ELEMENT_SET_NO":999,"REV_AT_EPOCH":23200,"BSTAR":0.00057752973,"MEAN_MOTION_DOT":2.3e-6,"MEAN_MOTION_DDOT":0},{"OBJECT_NAME":"ONEWEB-0213","OBJECT_ID":"2021-045Z","EPOCH":"2026-03-15T07:14:59.412192","MEAN_MOTION":13.15548774,"ECCENTRICITY":0.00018066,"INCLINATION":87.8941,"RA_OF_ASC_NODE":277.9319,"ARG_OF_PERICENTER":100.6739,"MEAN_ANOMALY":259.4595,"EPHEMERIS_TYPE":0,"CLASSIFICATION_TYPE":"U","NORAD_CAT_ID":48790,"ELEMENT_SET_NO":999,"REV_AT_EPOCH":23209,"BSTAR":0.00013855752,"MEAN_MOTION_DOT":6.5e-7,"MEAN_MOTION_DDOT":0},{"OBJECT_NAME":"ONEWEB-0212","OBJECT_ID":"2021-045AA","EPOCH":"2026-03-15T06:41:54.602880","MEAN_MOTION":13.15548418,"ECCENTRICITY":0.00016685,"INCLINATION":87.8943,"RA_OF_ASC_NODE":277.9309,"ARG_OF_PERICENTER":88.775,"MEAN_ANOMALY":271.3572,"EPHEMERIS_TYPE":0,"CLASSIFICATION_TYPE":"U","NORAD_CAT_ID":48791,"ELEMENT_SET_NO":999,"REV_AT_EPOCH":23208,"BSTAR":-7.3618304e-5,"MEAN_MOTION_DOT":-1.5e-7,"MEAN_MOTION_DDOT":0},{"OBJECT_NAME":"ONEWEB-0227","OBJECT_ID":"2021-045AB","EPOCH":"2026-03-15T03:01:43.699872","MEAN_MOTION":13.15548254,"ECCENTRICITY":0.00017463,"INCLINATION":87.8942,"RA_OF_ASC_NODE":277.9641,"ARG_OF_PERICENTER":91.3842,"MEAN_ANOMALY":268.7489,"EPHEMERIS_TYPE":0,"CLASSIFICATION_TYPE":"U","NORAD_CAT_ID":48792,"ELEMENT_SET_NO":999,"REV_AT_EPOCH":23201,"BSTAR":-8.2760221e-5,"MEAN_MOTION_DOT":-1.8e-7,"MEAN_MOTION_DDOT":0},{"OBJECT_NAME":"ONEWEB-0226","OBJECT_ID":"2021-045AC","EPOCH":"2026-03-15T06:31:38.429184","MEAN_MOTION":13.1554833,"ECCENTRICITY":0.00016851,"INCLINATION":87.8931,"RA_OF_ASC_NODE":277.9437,"ARG_OF_PERICENTER":101.4382,"MEAN_ANOMALY":258.6937,"EPHEMERIS_TYPE":0,"CLASSIFICATION_TYPE":"U","NORAD_CAT_ID":48793,"ELEMENT_SET_NO":999,"REV_AT_EPOCH":23200,"BSTAR":-0.00022144009,"MEAN_MOTION_DOT":-7.1e-7,"MEAN_MOTION_DDOT":0},{"OBJECT_NAME":"ONEWEB-0224","OBJECT_ID":"2021-045AD","EPOCH":"2026-03-15T02:00:08.287200","MEAN_MOTION":13.15549698,"ECCENTRICITY":0.00025071,"INCLINATION":87.8932,"RA_OF_ASC_NODE":278.0174,"ARG_OF_PERICENTER":83.021,"MEAN_ANOMALY":277.1206,"EPHEMERIS_TYPE":0,"CLASSIFICATION_TYPE":"U","NORAD_CAT_ID":48794,"ELEMENT_SET_NO":999,"REV_AT_EPOCH":23190,"BSTAR":0.00052675956,"MEAN_MOTION_DOT":2.11e-6,"MEAN_MOTION_DDOT":0},{"OBJECT_NAME":"ONEWEB-0233","OBJECT_ID":"2021-045AE","EPOCH":"2026-03-15T02:06:45.934560","MEAN_MOTION":13.15548537,"ECCENTRICITY":0.00019328,"INCLINATION":87.8929,"RA_OF_ASC_NODE":278.0253,"ARG_OF_PERICENTER":95.6102,"MEAN_ANOMALY":264.5249,"EPHEMERIS_TYPE":0,"CLASSIFICATION_TYPE":"U","NORAD_CAT_ID":48795,"ELEMENT_SET_NO":999,"REV_AT_EPOCH":23192,"BSTAR":0.00053892975,"MEAN_MOTION_DOT":2.16e-6,"MEAN_MOTION_DDOT":0},{"OBJECT_NAME":"ONEWEB-0190","OBJECT_ID":"2021-045AF","EPOCH":"2026-03-15T01:48:42.271200","MEAN_MOTION":13.15548741,"ECCENTRICITY":0.00021186,"INCLINATION":87.8929,"RA_OF_ASC_NODE":277.989,"ARG_OF_PERICENTER":108.8799,"MEAN_ANOMALY":251.2562,"EPHEMERIS_TYPE":0,"CLASSIFICATION_TYPE":"U","NORAD_CAT_ID":48796,"ELEMENT_SET_NO":999,"REV_AT_EPOCH":23199,"BSTAR":0.00018763862,"MEAN_MOTION_DOT":8.3e-7,"MEAN_MOTION_DDOT":0},{"OBJECT_NAME":"ONEWEB-0236","OBJECT_ID":"2021-045AG","EPOCH":"2026-03-15T00:24:17.134272","MEAN_MOTION":13.15548363,"ECCENTRICITY":0.00016404,"INCLINATION":87.893,"RA_OF_ASC_NODE":278.012,"ARG_OF_PERICENTER":85.4322,"MEAN_ANOMALY":274.6995,"EPHEMERIS_TYPE":0,"CLASSIFICATION_TYPE":"U","NORAD_CAT_ID":48797,"ELEMENT_SET_NO":999,"REV_AT_EPOCH":23187,"BSTAR":0.00056250062,"MEAN_MOTION_DOT":2.25e-6,"MEAN_MOTION_DDOT":0},{"OBJECT_NAME":"ONEWEB-0248","OBJECT_ID":"2021-045AH","EPOCH":"2026-03-15T06:11:05.883936","MEAN_MOTION":13.15550836,"ECCENTRICITY":0.00021402,"INCLINATION":87.8941,"RA_OF_ASC_NODE":277.9377,"ARG_OF_PERICENTER":95.8081,"MEAN_ANOMALY":264.3293,"EPHEMERIS_TYPE":0,"CLASSIFICATION_TYPE":"U","NORAD_CAT_ID":48798,"ELEMENT_SET_NO":999,"REV_AT_EPOCH":23206,"BSTAR":0.00021746711,"MEAN_MOTION_DOT":9.5e-7,"MEAN_MOTION_DDOT":0},{"OBJECT_NAME":"ONEWEB-0225","OBJECT_ID":"2021-045AJ","EPOCH":"2026-03-15T06:43:02.954784","MEAN_MOTION":13.15548191,"ECCENTRICITY":0.00020589,"INCLINATION":87.8933,"RA_OF_ASC_NODE":277.9485,"ARG_OF_PERICENTER":105.245,"MEAN_ANOMALY":254.8908,"EPHEMERIS_TYPE":0,"CLASSIFICATION_TYPE":"U","NORAD_CAT_ID":48799,"ELEMENT_SET_NO":999,"REV_AT_EPOCH":23207,"BSTAR":-0.00025892583,"MEAN_MOTION_DOT":-8.5e-7,"MEAN_MOTION_DDOT":0},{"OBJECT_NAME":"ONEWEB-0215","OBJECT_ID":"2021-045AK","EPOCH":"2026-03-15T00:31:08.502816","MEAN_MOTION":13.15548659,"ECCENTRICITY":0.00022497,"INCLINATION":87.8944,"RA_OF_ASC_NODE":277.9738,"ARG_OF_PERICENTER":105.3304,"MEAN_ANOMALY":254.8075,"EPHEMERIS_TYPE":0,"CLASSIFICATION_TYPE":"U","NORAD_CAT_ID":48800,"ELEMENT_SET_NO":999,"REV_AT_EPOCH":23191,"BSTAR":0.00042208759,"MEAN_MOTION_DOT":1.72e-6,"MEAN_MOTION_DDOT":0},{"OBJECT_NAME":"ONEWEB-0216","OBJECT_ID":"2021-045AL","EPOCH":"2026-03-15T06:13:22.039104","MEAN_MOTION":13.15552531,"ECCENTRICITY":0.00015501,"INCLINATION":87.8933,"RA_OF_ASC_NODE":277.9453,"ARG_OF_PERICENTER":90.9324,"MEAN_ANOMALY":269.1984,"EPHEMERIS_TYPE":0,"CLASSIFICATION_TYPE":"U","NORAD_CAT_ID":48801,"ELEMENT_SET_NO":999,"REV_AT_EPOCH":23195,"BSTAR":0.00011903524,"MEAN_MOTION_DOT":5.8e-7,"MEAN_MOTION_DDOT":0},{"OBJECT_NAME":"ONEWEB-0239","OBJECT_ID":"2021-045AM","EPOCH":"2026-03-15T06:20:14.326944","MEAN_MOTION":13.1554915,"ECCENTRICITY":0.00024152,"INCLINATION":87.893,"RA_OF_ASC_NODE":277.958,"ARG_OF_PERICENTER":99.8022,"MEAN_ANOMALY":260.3381,"EPHEMERIS_TYPE":0,"CLASSIFICATION_TYPE":"U","NORAD_CAT_ID":48802,"ELEMENT_SET_NO":999,"REV_AT_EPOCH":23199,"BSTAR":0.00042357118,"MEAN_MOTION_DOT":1.72e-6,"MEAN_MOTION_DDOT":0}]
