ONEWEB-0210             
1 48787U 21045W   26074.29732589  .00000078  00000+0  17181-3 0  9995
2 48787  87.8942 277.9232 0001808 121.6823 238.4484 13.15548353231979
ONEWEB-0214             
1 48788U 21045X   26073.92576083  .00000188  00000+0  46619-3 0  9990
2 48788  87.8943 277.9936 0001494 104.8728 255.2568 13.15548272231891
ONEWEB-0221             
1 48789U 21045Y   26074.08500182  .00000230  00000+0  57753-3 0  9995
2 48789  87.8941 277.9717 0001862  95.2513 264.8830 13.15547912232003
ONEWEB-0213             
1 48790U 21045Z   26074.30207653  .00000065  00000+0  13856-3 0  9991
2 48790  87.8941 277.9319 0001806 100.6739 259.4595 13.15548774232096
ONEWEB-0212             
1 48791U 21045AA  26074.27910420 -.00000015  00000+0 -73618-4 0  9991
2 48791  87.8943 277.9309 0001668  88.7750 271.3572 13.15548418232085
ONEWEB-0227             
1 48792U 21045AB  26074.12620023 -.00000018  00000+0 -82760-4 0  9994
2 48792  87.8942 277.9641 0001746  91.3842 268.7489 13.15548254232011
ONEWEB-0226             
1 48793U 21045AC  26074.27197256 -.00000071  00000+0 -22144-3 0  9996
2 48793  87.8931 277.9437 0001685 101.4382 258.6937 13.15548330232007
ONEWEB-0224             
1 48794U 21045AD  26074.08342925  .00000211  00000+0  52676-3 0  9998
2 48794  87.8932 278.0174 0002507  83.0210 277.1206 13.15549698231909
ONEWEB-0233             
1 48795U 21045AE  26074.08803165  .00000216  00000+0  53893-3 0  9994
2 48795  87.8929 278.0253 0001932  95.6102 264.5249 13.15548537231924
ONEWEB-0190             
1 48796U 21045AF  26074.07548925  .00000083  00000+0  18764-3 0  9994
2 48796  87.8929 277.9890 0002118 108.8799 251.2562 13.15548741231991
ONEWEB-0236             
1 48797U 21045AG  26074.01686498  .00000225  00000+0  56250-3 0  9997
2 48797  87.8930 278.0120 0001640  85.4322 274.6995 13.15548363231879
ONEWEB-0248             
1 48798U 21045AH  26074.25770699  .00000095  00000+0  21747-3 0  9999
2 48798  87.8941 277.9377 0002140  95.8081 264.3293 13.15550836232064
ONEWEB-0225             
1 48799U 21045AJ  26074.27989531 -.00000085  00000+0 -25893-3 0  9996
2 48799  87.8933 277.9485 0002058 105.2450 254.8908 13.15548191232079
ONEWEB-0215             
1 48800U 21045AK  26074.02162619  .00000172  00000+0  42209-3 0  9997
2 48800  87.8944 277.9738 0002249 105.3304 254.8075 13.15548659231912
ONEWEB-0216             
1 48801U 21045AL  26074.25928286  .00000058  00000+0  11904-3 0  9994
2 48801  87.8933 277.9453 0001550  90.9324 269.1984 13.15552531231956
ONEWEB-0239             
1 48802U 21045AM  26074.26405471  .00000172  00000+0  42357-3 0  9995
2 48802  87.8930 277.9580 0002415  99.8022 260.3381 13.15549150231990
